TRANSIT 16 [?]          
1 02807U 67048A   23016.82403270  .00000160  00000+0  23394-3 0  9990
2 02807  89.6579  29.1336 0018685 307.2652 227.7516 13.50352999739566
TRANSIT 17 [?]          
1 02965U 67092A   23016.78477951  .00000178  00000+0  24668-3 0  9990
2 02965  89.2337 106.9214 0049455  77.4949  37.0011 13.53064600727484
TRANSIT 18 [?]          
1 03133U 68012A   23016.74941090  .00000204  00000+0  29610-3 0  9999
2 03133  90.0111 271.7224 0075281   4.9623  55.3116 13.51192959425890
NNSS 19 [?]             
1 04507U 70067A   23016.88723617  .00000188  00000+0  24982-3 0  9994
2 04507  89.9320 237.7966 0173777 125.7727 235.9722 13.50871774578971
NNSS O-20 [?]           
1 06909U 73081A   23016.93195382  .00000361  00000+0  36110-3 0  9998
2 06909  89.8226 273.4069 0157111  18.2415 342.4295 13.70743767658259
TRANSAT [?]             
1 10457U 77106A   23017.18600258  .00000105  00000+0  15239-3 0  9999
2 10457  89.6755 115.5804 0025248  15.4983   3.3093 13.48705517224696
NOVA I [?]              
1 12458U 81044A   23016.73019640  .00000047  00000+0  89900-4 0  9999
2 12458  89.8839 105.3060 0015789 144.8955 332.9291 13.23087581 11557
NOVA 3 [?]              
1 15362U 84110A   23017.38092123  .00000084  00000+0  18065-3 0  9996
2 15362  90.1022  69.0333 0032189  16.1030 354.6672 13.22853369847061
OSCAR 30 [?]            
1 15935U 85066A   23017.47368181  .00000129  00000+0  21762-3 0  9991
2 15935  90.1795  81.6521 0168539 194.1694 178.0399 13.35787406823043
OSCAR 24 [?]            
1 15936U 85066B   23017.42117934  .00000130  00000+0  22005-3 0  9998
2 15936  90.1763  73.5562 0168895 200.1684 170.1197 13.35646204825104
POLAR BEAR [?]          
1 17070U 86088A   23016.87024728  .00000165  00000+0  16048-3 0  9998
2 17070  89.5723 227.9455 0041136  80.6286 290.7493 13.74904202814009
OSCAR 27 [?]            
1 18361U 87080A   23016.79486176  .00000138  00000+0  21448-3 0  9995
2 18361  90.3350  41.3634 0105010  23.7867 336.8083 13.44596631732984
OSCAR 29 [?]            
1 18362U 87080B   23016.85560668  .00000116  00000+0  17903-3 0  9999
2 18362  90.3363  41.7148 0107301  44.1180 128.6458 13.44182156732563
OSCAR 23 [?]            
1 19070U 88033A   23017.14203727  .00000099  00000+0  18800-3 0  9995
2 19070  90.3265 343.5690 0188055 249.4830 119.8689 13.27547746682072
OSCAR 32 [?]            
1 19071U 88033B   23016.68876727  .00000099  00000+0  18709-3 0  9998
2 19071  90.3265 343.6451 0186479 238.4080 297.1159 13.27726497681840
NOVA 11 [?]             
1 19223U 88052A   23016.72776236  .00000044  00000+0  84496-4 0  9994
2 19223  89.9765  80.3511 0032129  60.0118  86.9169 13.22765961669208
OSCAR 25 [?]            
1 19419U 88074A   23016.78601194  .00000159  00000+0  25810-3 0  9992
2 19419  90.0055  18.0274 0097407  33.6163 138.9839 13.42325916684056
OSCAR 31 [?]            
1 19420U 88074B   23017.46521561  .00000122  00000+0  19475-3 0  9999
2 19420  90.0066  18.2269 0095362  25.9236 126.0493 13.42333033684524
